{"type": "FeatureCollection", "features": [ {"type": "Feature", "properties": {"norad_id": 43622, "name": "BEIDOU-3 M13 (C32)", "group": "beidou", "lat": 39.305652613515456, "lon": -144.05137052714826, "alt_km": 21539.372282121294, "timestamp": "2025-12-13T22:39:29.975208+00:00", "meta": {"OBJECT_NAME": "BEIDOU-3 M13 (C32)", "OBJECT_ID": "2018-072A", "EPOCH": "2025-12-12T16:12:36.163584", "MEAN_MOTION": 1.8623072, "ECCENTRICITY": 0.0005872, "INCLINATION": 56.4592, "RA_OF_ASC_NODE": 68.8222, "ARG_OF_PERICENTER": 298.9421, "MEAN_ANOMALY": 61.0187, "EPHEMERIS_TYPE": 0, "CLASSIFICATION_TYPE": "U", "NORAD_CAT_ID": 43622, "ELEMENT_SET_NO": 999, "REV_AT_EPOCH": 4918, "BSTAR": 0, "MEAN_MOTION_DOT": -7.4e-07, "MEAN_MOTION_DDOT": 0}, "tle": {"line1": "1 43622U 18072A   25346.67541856 -.00000074  00000+0  00000+0 0  9997", "line2": "2 43622  56.4592  68.8222 0005872 298.9421  61.0187  1.86230720 49189"}}, "geometry": {"type": "Point", "coordinates": [-144.05137052714826, 39.305652613515456]}}, {"type": "Feature", "properties": {"norad_id": 43623, "name": "BEIDOU-3 M14 (C33)", "group": "beidou", "lat": -32.988694272268944, "lon": -85.75444837678225, "alt_km": 21535.948071564675, "timestamp": "2025-12-13T22:39:29.975219+00:00", "meta": {"OBJECT_NAME": "BEIDOU-3 M14 (C33)", "OBJECT_ID": "2018-072B", "EPOCH": "2025-12-12T00:05:39.634080", "MEAN_MOTION": 1.86230719, "ECCENTRICITY": 0.00032787, "INCLINATION": 56.4604, "RA_OF_ASC_NODE": 68.8385, "ARG_OF_PERICENTER": 334.6213, "MEAN_ANOMALY": 25.3832, "EPHEMERIS_TYPE": 0, "CLASSIFICATION_TYPE": "U", "NORAD_CAT_ID": 43623, "ELEMENT_SET_NO": 999, "REV_AT_EPOCH": 4916, "BSTAR": 0, "MEAN_MOTION_DOT": -6.8e-07, "MEAN_MOTION_DDOT": 0}, "tle": {"line1": "1 43623U 18072B   25346.00393095 -.00000068  00000+0  00000+0 0  9998", "line2": "2 43623  56.4604  68.8385 0003278 334.6213  25.3832  1.86230719 49165"}}, "geometry": {"type": "Point", "coordinates": [-85.75444837678225, -32.988694272268944]}}, {"type": "Feature", "properties": {"norad_id": 43647, "name": "BEIDOU-3 M16 (C35)", "group": "beidou", "lat": 47.29927164949396, "lon": 75.21847261347067, "alt_km": 21524.284254611677, "timestamp": "2025-12-13T22:39:29.975230+00:00", "meta": {"OBJECT_NAME": "BEIDOU-3 M16 (C35)", "OBJECT_ID": "2018-078A", "EPOCH": "2025-12-12T16:46:08.548320", "MEAN_MOTION": 1.8623232, "ECCENTRICITY": 0.00071943, "INCLINATION": 54.262, "RA_OF_ASC_NODE": 306.5225, "ARG_OF_PERICENTER": 19.2835, "MEAN_ANOMALY": 340.7342, "EPHEMERIS_TYPE": 0, "CLASSIFICATION_TYPE": "U", "NORAD_CAT_ID": 43647, "ELEMENT_SET_NO": 999, "REV_AT_EPOCH": 4868, "BSTAR": 0, "MEAN_MOTION_DOT": -9.5e-07, "MEAN_MOTION_DDOT": 0}, "tle": {"line1": "1 43647U 18078A   25346.69871005 -.00000095  00000+0  00000+0 0  9997", "line2": "2 43647  54.2620 306.5225 0007194  19.2835 340.7342  1.86232320 48683"}}, "geometry": {"type": "Point", "coordinates": [75.21847261347067, 47.29927164949396]}}, {"type": "Feature", "properties": {"norad_id": 43648, "name": "BEIDOU-3 M15 (C34)", "group": "beidou", "lat": 22.677432607140677, "lon": -36.0385289666192, "alt_km": 21515.249223087467, "timestamp": "2025-12-13T22:39:29.975241+00:00", "meta": {"OBJECT_NAME": "BEIDOU-3 M15 (C34)", "OBJECT_ID": "2018-078B", "EPOCH": "2025-12-12T19:52:13.655712", "MEAN_MOTION": 1.86231884, "ECCENTRICITY": 0.00036384, "INCLINATION": 54.2577, "RA_OF_ASC_NODE": 306.5185, "ARG_OF_PERICENTER": 18.0764, "MEAN_ANOMALY": 341.9269, "EPHEMERIS_TYPE": 0, "CLASSIFICATION_TYPE": "U", "NORAD_CAT_ID": 43648, "ELEMENT_SET_NO": 999, "REV_AT_EPOCH": 4870, "BSTAR": 0, "MEAN_MOTION_DOT": -9.5e-07, "MEAN_MOTION_DDOT": 0}, "tle": {"line1": "1 43648U 18078B   25346.82793583 -.00000095  00000+0  00000+0 0  9997", "line2": "2 43648  54.2577 306.5185 0003638  18.0764 341.9269  1.86231884 48705"}}, "geometry": {"type": "Point", "coordinates": [-36.0385289666192, 22.677432607140677]}}, {"type": "Feature", "properties": {"norad_id": 43683, "name": "BEIDOU-3 G1 (C59)", "group": "beidou", "lat": 2.55747840669131, "lon": -157.17388588247834, "alt_km": 35780.61509501325, "timestamp": "2025-12-13T22:39:29.975253+00:00", "meta": {"OBJECT_NAME": "BEIDOU-3 G1 (C59)", "OBJECT_ID": "2018-085A", "EPOCH": "2025-12-13T05:33:17.150400", "MEAN_MOTION": 1.00270593, "ECCENTRICITY": 0.00017008, "INCLINATION": 2.6092, "RA_OF_ASC_NODE": 102.9591, "ARG_OF_PERICENTER": 60.8617, "MEAN_ANOMALY": 141.7349, "EPHEMERIS_TYPE": 0, "CLASSIFICATION_TYPE": "U", "NORAD_CAT_ID": 43683, "ELEMENT_SET_NO": 999, "REV_AT_EPOCH": 2619, "BSTAR": 0, "MEAN_MOTION_DOT": -2.63e-06, "MEAN_MOTION_DDOT": 0}, "tle": {"line1": "1 43683U 18085A   25347.23144850 -.00000263  00000+0  00000+0 0  9994", "line2": "2 43683   2.6092 102.9591 0001700  60.8617 141.7349  1.00270593 26192"}}, "geometry": {"type": "Point", "coordinates": [-157.17388588247834, 2.55747840669131]}}, {"type": "Feature", "properties": {"norad_id": 43706, "name": "BEIDOU-3 M17 (C36)", "group": "beidou", "lat": -52.46379696407248, "lon": 118.47144715068346, "alt_km": 21518.345002110058, "timestamp": "2025-12-13T22:39:29.975265+00:00", "meta": {"OBJECT_NAME": "BEIDOU-3 M17 (C36)", "OBJECT_ID": "2018-093A", "EPOCH": "2025-12-12T04:17:11.485824", "MEAN_MOTION": 1.86228421, "ECCENTRICITY": 0.00062217, "INCLINATION": 54.1726, "RA_OF_ASC_NODE": 188.6407, "ARG_OF_PERICENTER": 307.45, "MEAN_ANOMALY": 230.9206, "EPHEMERIS_TYPE": 0, "CLASSIFICATION_TYPE": "U", "NORAD_CAT_ID": 43706, "ELEMENT_SET_NO": 999, "REV_AT_EPOCH": 4805, "BSTAR": 0, "MEAN_MOTION_DOT": 7.8e-07, "MEAN_MOTION_DDOT": 0}, "tle": {"line1": "1 43706U 18093A   25346.17860516  .00000078  00000+0  00000+0 0  9998", "line2": "2 43706  54.1726 188.6407 0006221 307.4500 230.9206  1.86228421 48054"}}, "geometry": {"type": "Point", "coordinates": [118.47144715068346, -52.46379696407248]}}, {"type": "Feature", "properties": {"norad_id": 43707, "name": "BEIDOU-3 M18 (C37)", "group": "beidou", "lat": 12.01367061038475, "lon": -162.576768237469, "alt_km": 21510.756304188086, "timestamp": "2025-12-13T22:39:29.975276+00:00", "meta": {"OBJECT_NAME": "BEIDOU-3 M18 (C37)", "OBJECT_ID": "2018-093B", "EPOCH": "2025-12-12T20:21:07.427232", "MEAN_MOTION": 1.86226583, "ECCENTRICITY": 0.00063344, "INCLINATION": 54.1732, "RA_OF_ASC_NODE": 188.6097, "ARG_OF_PERICENTER": 352.9631, "MEAN_ANOMALY": 7.0898, "EPHEMERIS_TYPE": 0, "CLASSIFICATION_TYPE": "U", "NORAD_CAT_ID": 43707, "ELEMENT_SET_NO": 999, "REV_AT_EPOCH": 4806, "BSTAR": 0, "MEAN_MOTION_DOT": 8.8e-07, "MEAN_MOTION_DDOT": 0}, "tle": {"line1": "1 43707U 18093B   25346.84800263  .00000088  00000+0  00000+0 0  9997", "line2": "2 43707  54.1732 188.6097 0006334 352.9631   7.0898  1.86226583 48060"}}, "geometry": {"type": "Point", "coordinates": [-162.576768237469, 12.01367061038475]}}, {"type": "Feature", "properties": {"norad_id": 44204, "name": "BEIDOU-3 IGSO-1 (C38)", "group": "beidou", "lat": 36.45602293163616, "lon": -167.37770753267085, "alt_km": 35780.93366809141, "timestamp": "2025-12-13T22:39:29.975288+00:00", "meta": {"OBJECT_NAME": "BEIDOU-3 IGSO-1 (C38)", "OBJECT_ID": "2019-023A", "EPOCH": "2025-11-19T14:15:02.708640", "MEAN_MOTION": 1.00252177, "ECCENTRICITY": 0.0026966, "INCLINATION": 58.4003, "RA_OF_ASC_NODE": 39.8168, "ARG_OF_PERICENTER": 221.2202, "MEAN_ANOMALY": 126.9723, "EPHEMERIS_TYPE": 0, "CLASSIFICATION_TYPE": "U", "NORAD_CAT_ID": 44204, "ELEMENT_SET_NO": 999, "REV_AT_EPOCH": 510, "BSTAR": 0, "MEAN_MOTION_DOT": -2.26e-06, "MEAN_MOTION_DDOT": 0}, "tle": {"line1": "1 44204U 19023A   25323.59378135 -.00000226  00000+0  00000+0 0  9994", "line2": "2 44204  58.4003  39.8168 0026966 221.2202 126.9723  1.00252177  5102"}}, "geometry": {"type": "Point", "coordinates": [-167.37770753267085, 36.45602293163616]}}, {"type": "Feature", "properties": {"norad_id": 44231, "name": "BEIDOU-2 G8 (C01)", "group": "beidou", "lat": 1.213256719765516, "lon": -152.8550876772741, "alt_km": 35807.411339091756, "timestamp": "2025-12-13T22:39:29.975303+00:00", "meta": {"OBJECT_NAME": "BEIDOU-2 G8 (C01)", "OBJECT_ID": "2019-027A", "EPOCH": "2025-12-13T05:34:32.029824", "MEAN_MOTION": 1.00267744, "ECCENTRICITY": 0.00087124, "INCLINATION": 1.6635, "RA_OF_ASC_NODE": 74.7101, "ARG_OF_PERICENTER": 256.2374, "MEAN_ANOMALY": 339.3417, "EPHEMERIS_TYPE": 0, "CLASSIFICATION_TYPE": "U", "NORAD_CAT_ID": 44231, "ELEMENT_SET_NO": 999, "REV_AT_EPOCH": 2421, "BSTAR": 0, "MEAN_MOTION_DOT": -2.35e-06, "MEAN_MOTION_DDOT": 0}, "tle": {"line1": "1 44231U 19027A   25347.23231516 -.00000235  00000+0  00000+0 0  9996", "line2": "2 44231   1.6635  74.7101 0008712 256.2374 339.3417  1.00267744 24214"}}, "geometry": {"type": "Point", "coordinates": [-152.8550876772741, 1.213256719765516]}}, {"type": "Feature", "properties": {"norad_id": 44337, "name": "BEIDOU-3 IGSO-2 (C39)", "group": "beidou", "lat": 17.70948966320899, "lon": 173.31487949416382, "alt_km": 35942.11907973806, "timestamp": "2025-12-13T22:39:29.975315+00:00", "meta": {"OBJECT_NAME": "BEIDOU-3 IGSO-2 (C39)", "OBJECT_ID": "2019-035A", "EPOCH": "2025-12-10T21:20:38.716800", "MEAN_MOTION": 1.00271557, "ECCENTRICITY": 0.00373373, "INCLINATION": 55.2247, "RA_OF_ASC_NODE": 160.5169, "ARG_OF_PERICENTER": 202.3364, "MEAN_ANOMALY": 156.6887, "EPHEMERIS_TYPE": 0, "CLASSIFICATION_TYPE": "U", "NORAD_CAT_ID": 44337, "ELEMENT_SET_NO": 999, "REV_AT_EPOCH": 2377, "BSTAR": 0, "MEAN_MOTION_DOT": -6.6e-07, "MEAN_MOTION_DDOT": 0}, "tle": {"line1": "1 44337U 19035A   25344.88933700 -.00000066  00000+0  00000+0 0  9996", "line2": "2 44337  55.2247 160.5169 0037337 202.3364 156.6887  1.00271557 23777"}}, "geometry": {"type": "Point", "coordinates": [173.31487949416382, 17.70948966320899]}}]}